DMC3-FM2                
1 40716U 15032B   17346.42709155  .00000040  00000-0  13977-4 0  9998
2 40716  98.0230 240.2615 0012079 300.2115  59.7891 14.73673589130458
